IXPE                    
1 49954U 21121A   24259.58334491  .00013336  00000+0  97761-3 0  9995
2 49954   0.2296  81.6480 0008516 182.5279 103.0344 14.99915523151485
